{
  "type": "FeatureCollection",
  "features": [
    {
      "type": "Feature",
      "properties": {
        "norad_id": 28054,
        "name": "DMSP 5D-3 F16 (USA 172)",
        "group": "weather",
        "lat": 59.82715969931045,
        "lon": -5.110476831775281,
        "alt_km": 840.7504457490068,
        "timestamp": "2025-12-19T04:59:47.942005+00:00",
        "meta_object_name": "DMSP 5D-3 F16 (USA 172)",
        "meta_object_id": "2003-048A",
        "meta_epoch": "2025-12-18T23:41:36.424896",
        "meta_mean_motion": 14.14426466,
        "meta_eccentricity": 0.00063286,
        "meta_inclination": 99.004,
        "meta_ra_of_asc_node": 10.4933,
        "meta_arg_of_pericenter": 301.0523,
        "meta_mean_anomaly": 75.4963,
        "meta_ephemeris_type": 0,
        "meta_classification_type": "U",
        "meta_norad_cat_id": 28054,
        "meta_element_set_no": 999,
        "meta_rev_at_epoch": 14401,
        "meta_bstar": 7.6321782e-05,
        "meta_mean_motion_dot": 1.01e-06,
        "meta_mean_motion_ddot": 0,
        "tle_line1": "1 28054U 03048A   25352.98722714  .00000101  00000+0  76322-4 0  9996",
        "tle_line2": "2 28054  99.0040  10.4933 0006328 301.0523  75.4963 14.14426466144018"
      },
      "geometry": {
        "type": "Point",
        "coordinates": [
          -5.110476831775281,
          59.82715969931045
        ]
      }
    },
    {
      "type": "Feature",
      "properties": {
        "norad_id": 28912,
        "name": "METEOSAT-9 (MSG-2)",
        "group": "weather",
        "lat": 4.059253374319285,
        "lon": -150.90987614305837,
        "alt_km": 35772.08316089989,
        "timestamp": "2025-12-19T04:59:47.942055+00:00",
        "meta_object_name": "METEOSAT-9 (MSG-2)",
        "meta_object_id": "2005-049B",
        "meta_epoch": "2025-12-17T18:40:44.289696",
        "meta_mean_motion": 1.00279199,
        "meta_eccentricity": 0.00033756,
        "meta_inclination": 8.9502,
        "meta_ra_of_asc_node": 55.9296,
        "meta_arg_of_pericenter": 190.8164,
        "meta_mean_anomaly": 165.8697,
        "meta_ephemeris_type": 0,
        "meta_classification_type": "U",
        "meta_norad_cat_id": 28912,
        "meta_element_set_no": 999,
        "meta_rev_at_epoch": 517,
        "meta_bstar": 0,
        "meta_mean_motion_dot": 1.4e-06,
        "meta_mean_motion_ddot": 0,
        "tle_line1": "1 28912U 05049B   25351.77829039  .00000140  00000+0  00000+0 0  9994",
        "tle_line2": "2 28912   8.9502  55.9296 0003375 190.8164 165.8697  1.00279199  5174"
      },
      "geometry": {
        "type": "Point",
        "coordinates": [
          -150.90987614305837,
          4.059253374319285
        ]
      }
    },
    {
      "type": "Feature",
      "properties": {
        "norad_id": 29522,
        "name": "DMSP 5D-3 F17 (USA 191)",
        "group": "weather",
        "lat": 12.590744940755506,
        "lon": -3.50622404657221,
        "alt_km": 850.5050747608839,
        "timestamp": "2025-12-19T04:59:47.942100+00:00",
        "meta_object_name": "DMSP 5D-3 F17 (USA 191)",
        "meta_object_id": "2006-050A",
        "meta_epoch": "2025-12-18T22:08:52.314144",
        "meta_mean_motion": 14.14922229,
        "meta_eccentricity": 0.00096428,
        "meta_inclination": 98.739,
        "meta_ra_of_asc_node": 358.1832,
        "meta_arg_of_pericenter": 206.1912,
        "meta_mean_anomaly": 153.8775,
        "meta_ephemeris_type": 0,
        "meta_classification_type": "U",
        "meta_norad_cat_id": 29522,
        "meta_element_set_no": 999,
        "meta_rev_at_epoch": 98692,
        "meta_bstar": 9.6738214e-05,
        "meta_mean_motion_dot": 1.44e-06,
        "meta_mean_motion_ddot": 0,
        "tle_line1": "1 29522U 06050A   25352.92282771  .00000144  00000+0  96738-4 0  9991",
        "tle_line2": "2 29522  98.7390 358.1832 0009642 206.1912 153.8775 14.14922229986926"
      },
      "geometry": {
        "type": "Point",
        "coordinates": [
          -3.50622404657221,
          12.590744940755506
        ]
      }
    },
    {
      "type": "Feature",
      "properties": {
        "norad_id": 32958,
        "name": "FENGYUN 3A",
        "group": "weather",
        "lat": -13.530267431944969,
        "lon": 110.49449790129127,
        "alt_km": 832.0974603009663,
        "timestamp": "2025-12-19T04:59:47.942115+00:00",
        "meta_object_name": "FENGYUN 3A",
        "meta_object_id": "2008-026A",
        "meta_epoch": "2025-12-18T19:37:42.374784",
        "meta_mean_motion": 14.19516502,
        "meta_eccentricity": 0.00077003,
        "meta_inclination": 98.6703,
        "meta_ra_of_asc_node": 292.2167,
        "meta_arg_of_pericenter": 291.0603,
        "meta_mean_anomaly": 68.975,
        "meta_ephemeris_type": 0,
        "meta_classification_type": "U",
        "meta_norad_cat_id": 32958,
        "meta_element_set_no": 999,
        "meta_rev_at_epoch": 90981,
        "meta_bstar": 5.5044233e-05,
        "meta_mean_motion_dot": 7.3e-07,
        "meta_mean_motion_ddot": 0,
        "tle_line1": "1 32958U 08026A   25352.81785156  .00000073  00000+0  55044-4 0  9992",
        "tle_line2": "2 32958  98.6703 292.2167 0007700 291.0603  68.9750 14.19516502909812"
      },
      "geometry": {
        "type": "Point",
        "coordinates": [
          110.49449790129127,
          -13.530267431944969
        ]
      }
    },
    {
      "type": "Feature",
      "properties": {
        "norad_id": 35491,
        "name": "GOES 14",
        "group": "weather",
        "lat": -0.6965366394665761,
        "lon": 49.17167506001565,
        "alt_km": 35837.0642040992,
        "timestamp": "2025-12-19T04:59:47.942130+00:00",
        "meta_object_name": "GOES 14",
        "meta_object_id": "2009-033A",
        "meta_epoch": "2025-12-18T23:01:36.198336",
        "meta_mean_motion": 1.00096794,
        "meta_eccentricity": 5.139e-05,
        "meta_inclination": 1.2191,
        "meta_ra_of_asc_node": 85.3443,
        "meta_arg_of_pericenter": 179.5584,
        "meta_mean_anomaly": 54.6314,
        "meta_ephemeris_type": 0,
        "meta_classification_type": "U",
        "meta_norad_cat_id": 35491,
        "meta_element_set_no": 999,
        "meta_rev_at_epoch": 478,
        "meta_bstar": 0,
        "meta_mean_motion_dot": 1.6e-07,
        "meta_mean_motion_ddot": 0,
        "tle_line1": "1 35491U 09033A   25352.95944674  .00000016  00000+0  00000+0 0  9997",
        "tle_line2": "2 35491   1.2191  85.3443 0000513 179.5584  54.6314  1.00096794  4781"
      },
      "geometry": {
        "type": "Point",
        "coordinates": [
          49.17167506001565,
          -0.6965366394665761
        ]
      }
    },
    {
      "type": "Feature",
      "properties": {
        "norad_id": 35951,
        "name": "DMSP 5D-3 F18 (USA 210)",
        "group": "weather",
        "lat": -55.83003154429128,
        "lon": 136.25579487337828,
        "alt_km": 858.5444153081999,
        "timestamp": "2025-12-19T04:59:47.942142+00:00",
        "meta_object_name": "DMSP 5D-3 F18 (USA 210)",
        "meta_object_id": "2009-057A",
        "meta_epoch": "2025-12-18T22:47:20.689728",
        "meta_mean_motion": 14.14773291,
        "meta_eccentricity": 0.00119264,
        "meta_inclination": 98.8839,
        "meta_ra_of_asc_node": 329.3194,
        "meta_arg_of_pericenter": 46.414,
        "meta_mean_anomaly": 313.8021,
        "meta_ephemeris_type": 0,
        "meta_classification_type": "U",
        "meta_norad_cat_id": 35951,
        "meta_element_set_no": 999,
        "meta_rev_at_epoch": 83410,
        "meta_bstar": 0.00014271477,
        "meta_mean_motion_dot": 2.31e-06,
        "meta_mean_motion_ddot": 0,
        "tle_line1": "1 35951U 09057A   25352.94954502  .00000231  00000+0  14271-3 0  9992",
        "tle_line2": "2 35951  98.8839 329.3194 0011926  46.4140 313.8021 14.14773291834102"
      },
      "geometry": {
        "type": "Point",
        "coordinates": [
          136.25579487337828,
          -55.83003154429128
        ]
      }
    },
    {
      "type": "Feature",
      "properties": {
        "norad_id": 36411,
        "name": "EWS-G2 (GOES 15)",
        "group": "weather",
        "lat": 0.5296602406778826,
        "lon": -135.6667363416905,
        "alt_km": 35768.14798973119,
        "timestamp": "2025-12-19T04:59:47.942156+00:00",
        "meta_object_name": "EWS-G2 (GOES 15)",
        "meta_object_id": "2010-008A",
        "meta_epoch": "2025-12-18T20:26:06.090432",
        "meta_mean_motion": 1.00270766,
        "meta_eccentricity": 0.00054722,
        "meta_inclination": 0.8281,
        "meta_ra_of_asc_node": 86.0897,
        "meta_arg_of_pericenter": 176.8325,
        "meta_mean_anomaly": 192.6821,
        "meta_ephemeris_type": 0,
        "meta_classification_type": "U",
        "meta_norad_cat_id": 36411,
        "meta_element_set_no": 999,
        "meta_rev_at_epoch": 5783,
        "meta_bstar": 0,
        "meta_mean_motion_dot": 6.2e-07,
        "meta_mean_motion_ddot": 0,
        "tle_line1": "1 36411U 10008A   25352.85145938  .00000062  00000+0  00000+0 0  9990",
        "tle_line2": "2 36411   0.8281  86.0897 0005472 176.8325 192.6821  1.00270766 57835"
      },
      "geometry": {
        "type": "Point",
        "coordinates": [
          -135.6667363416905,
          0.5296602406778826
        ]
      }
    }
  ]
}